STARLINK-35883          
1 66892U 25283Q   25355.50002315 -.00030975  00000+0 -20785-3 0  9997
2 66892  53.1574  29.8871 0001288  80.4583  58.2771 15.74202013  3772
STARLINK-36033          
1 66893U 25283R   25355.50002315 -.00022711  00000+0 -15112-3 0  9995
2 66893  53.1573  29.8835 0001104  84.2174  56.4423 15.74199361  3839
STARLINK-35718          
1 66894U 25283S   25355.50002315  .00014137  00000+0  10070-3 0  9995
2 66894  53.1573  29.8799 0001065  77.3937  65.1745 15.74179147  3839
STARLINK-35971          
1 66895U 25283T   25355.50002315  .00000844  00000+0  10061-4 0  9997
2 66895  53.1576  29.8703 0001210  90.0981  56.3092 15.74191174  3832
STARLINK-35791          
1 66896U 25283U   25355.50002315 -.00027155  00000+0 -18160-3 0  9991
2 66896  53.1573  29.8749 0001012  88.9796  55.5066 15.74203452  3835
STARLINK-36079          
1 66897U 25283V   25355.50002315 -.00026271  00000+0 -17556-3 0  9998
2 66897  53.1574  29.8671 0001196  87.5317  60.7892 15.74198069  3830
STARLINK-36065          
1 66898U 25283W   25355.50002315 -.00015152  00000+0 -99294-4 0  9995
2 66898  53.1576  29.8625 0001099  80.6049  69.6373 15.74200137  3832
STARLINK-36064          
1 66899U 25283X   25355.50002315 -.00023544  00000+0 -15683-3 0  9999
2 66899  53.1574  29.8586 0001118  93.0070  59.1475 15.74200337  3773
STARLINK-36074          
1 66900U 25283Y   25355.50002315 -.00000480  00000+0  10147-5 0  9997
2 66900  53.1575  29.8546 0001076  75.0044  79.0698 15.74193647  3837
STARLINK-36043          
1 66901U 25283Z   25355.50002315 -.00034182  00000+0 -22987-3 0  9998
2 66901  53.1575  29.8503 0001081  87.7409  68.2482 15.74205167  3834
STARLINK-35983          
1 66902U 25283AA  25355.50002315  .00050544  00000+0  34775-3 0  9995
2 66902  53.1574  29.8466 0001130  97.5338  60.3822 15.74161334  3835
STARLINK-36077          
1 66903U 25283AB  25355.50002315 -.00003478  00000+0 -19454-4 0  9990
2 66903  53.1572  29.8426 0001187 100.6399  59.1835 15.74197533  3835
